{
    "links": {
        "self": "http://www.neowsapp.com/rest/v1/neo/3567972?api_key=iIulBulltgU6a56xZRHN4H3l9WmuAYTsLGpBGhQ2"
    },
    "id": "3567972",
    "neo_reference_id": "3567972",
    "name": "(2011 LS17)",
    "designation": "2011 LS17",
    "nasa_jpl_url": "http://ssd.jpl.nasa.gov/sbdb.cgi?sstr=3567972",
    "absolute_magnitude_h": 22.6,
    "estimated_diameter": {
        "kilometers": {
            "estimated_diameter_min": 0.0802703167,
            "estimated_diameter_max": 0.1794898848
        },
        "meters": {
            "estimated_diameter_min": 80.2703167283,
            "estimated_diameter_max": 179.4898847799
        },
        "miles": {
            "estimated_diameter_min": 0.049877647,
            "estimated_diameter_max": 0.1115298092
        },
        "feet": {
            "estimated_diameter_min": 263.3540659348,
            "estimated_diameter_max": 588.8775935812
        }
    },
    "is_potentially_hazardous_asteroid": false,
    "close_approach_data": [
        {
            "close_approach_date": "2011-07-31",
            "close_approach_date_full": "2011-Jul-31 19:46",
            "epoch_date_close_approach": 1312141560000,
            "relative_velocity": {
                "kilometers_per_second": "10.8978054159",
                "kilometers_per_hour": "39232.0994971018",
                "miles_per_hour": "24377.3009347408"
            },
            "miss_distance": {
                "astronomical": "0.1142962811",
                "lunar": "44.4612533479",
                "kilometers": "17098480.201481257",
                "miles": "10624502.9324530666"
            },
            "orbiting_body": "Earth"
        }
    ],
    "orbital_data": {
        "orbit_id": "6",
        "orbit_determination_date": "2017-04-06 08:53:20",
        "first_observation_date": "2011-06-07",
        "last_observation_date": "2011-06-27",
        "data_arc_in_days": 20,
        "observations_used": 14,
        "orbit_uncertainty": "9",
        "minimum_orbit_intersection": ".0294686",
        "jupiter_tisserand_invariant": "3.183",
        "epoch_osculation": "2455721.5",
        "eccentricity": ".6369054099766587",
        "semi_major_axis": "2.445330168763165",
        "inclination": "3.565305361344825",
        "ascending_node_longitude": "46.46870156096301",
        "orbital_period": "1396.704993165729",
        "perihelion_distance": ".8878861550987692",
        "perihelion_argument": "287.0346140167677",
        "aphelion_distance": "4.00277418242756",
        "perihelion_time": "2455793.740829484510",
        "mean_anomaly": "341.3799630260664",
        "mean_motion": ".2577494902370436",
        "equinox": "J2000",
        "orbit_class": {
            "orbit_class_type": "APO",
            "orbit_class_description": "Near-Earth asteroid orbits which cross the Earth’s orbit similar to that of 1862 Apollo",
            "orbit_class_range": "a (semi-major axis) > 1.0 AU; q (perihelion) < 1.017 AU"
        }
    },
    "is_sentry_object": false
}